NORAD_CAT_ID,OBJECT_NAME,OBJECT_TYPE,EPOCH,MEAN_MOTION,ECCENTRICITY,INCLINATION,RA_OF_ASC_NODE,ARG_OF_PERICENTER,MEAN_ANOMALY,BSTAR,MEAN_MOTION_DOT,MEAN_MOTION_DDOT,TLE_LINE0,TLE_LINE1,TLE_LINE2,SEMIMAJOR_AXIS,PERIOD,APOGEE,PERIGEE,DECAYED
51745.0,STARLINK-3449,PAYLOAD,2023-06-23 01:54:45,15.08849647,0.0001081,53.2169,86.1389,88.1004,272.0112,1.6521e-05,-2.5e-07,0.0,0 STARLINK-3449,1 51745U 22016AH  23174.07969133 -.00000025  00000-0  16521-4 0  9995,2 51745  53.2169  86.1389 0001081  88.1004 272.0112 15.08849647 75140,6917.851,95.437,540.464,538.968,0.0
51745.0,STARLINK-3449,PAYLOAD,2023-06-23 17:48:37,15.08836728,0.0001268,53.2175,83.1667,86.5486,273.5651,0.00010716,1.418e-05,0.0,0 STARLINK-3449,1 51745U 22016AH  23174.74209573  .00001418  00000-0  10716-3 0  9999,2 51745  53.2175  83.1667 0001268  86.5486 273.5651 15.08836728 75247,6917.89,95.438,540.633,538.878,0.0
51745.0,STARLINK-3449,PAYLOAD,2023-06-24 03:20:55,15.08849622,0.0001207,53.2175,81.3807,91.9764,268.1367,0.00014891,2.083e-05,0.0,0 STARLINK-3449,1 51745U 22016AH  23175.13952633  .00002083  00000-0  14891-3 0  9992,2 51745  53.2175  81.3807 0001207  91.9764 268.1367 15.08849622 75303,6917.851,95.437,540.551,538.881,0.0
51745.0,STARLINK-3449,PAYLOAD,2023-06-24 11:17:51,15.08836062,0.0001656,53.2174,79.8942,85.2224,274.8958,3.9083e-05,3.34e-06,0.0,0 STARLINK-3449,1 51745U 22016AH  23175.47073968  .00000334  00000-0  39083-4 0  9992,2 51745  53.2174  79.8942 0001656  85.2224 274.8958 15.08836062 75358,6917.892,95.438,540.903,538.612,0.0
51745.0,STARLINK-3449,PAYLOAD,2023-06-25 03:11:42,15.08849242,0.0001241,53.2172,76.9201,89.0981,271.0153,2.7141e-05,1.44e-06,0.0,0 STARLINK-3449,1 51745U 22016AH  23176.13313096  .00000144  00000-0  27141-4 0  9996,2 51745  53.2172  76.9201 0001241  89.0981 271.0153 15.08849242 75455,6917.852,95.437,540.576,538.859,0.0
51745.0,STARLINK-3449,PAYLOAD,2023-06-25 22:16:20,15.08837283,0.0001101,53.2169,73.3498,100.2672,259.8445,6.8052e-05,7.95e-06,0.0,0 STARLINK-3449,1 51745U 22016AH  23176.92801568  .00000795  00000-0  68052-4 0  9997,2 51745  53.2169  73.3498 0001101 100.2672 259.8445 15.08837283 75571,6917.889,95.438,540.515,538.992,0.0
51745.0,STARLINK-3449,PAYLOAD,2023-06-26 20:31:45,15.08828739,0.0001281,53.2167,69.19,96.1113,264.0025,-5.2326e-07,-2.96e-06,0.0,0 STARLINK-3449,1 51745U 22016AH  23177.85538495 -.00000296  00000-0 -52326-6 0  9993,2 51745  53.2167  69.1900 0001281  96.1113 264.0025 15.08828739 75716,6917.915,95.438,540.666,538.894,0.0
51745.0,STARLINK-3449,PAYLOAD,2023-06-27 09:14:50,15.08836102,0.0001198,53.2175,66.8087,80.448,279.6647,-3.7764e-06,-3.48e-06,0.0,0 STARLINK-3449,1 51745U 22016AH  23178.38530287 -.00000348  00000-0 -37764-5 0  9999,2 51745  53.2175  66.8087 0001198  80.4480 279.6647 15.08836102 75798,6917.892,95.438,540.586,538.929,0.0
51745.0,STARLINK-3449,PAYLOAD,2023-06-28 02:44:04,15.08844283,0.0001215,53.2174,63.5387,102.6907,257.4221,8.7548e-05,1.106e-05,0.0,0 STARLINK-3449,1 51745U 22016AH  23179.11393721  .00001106  00000-0  87548-4 0  9996,2 51745  53.2174  63.5387 0001215 102.6907 257.4221 15.08844283 75909,6917.867,95.437,540.573,538.892,0.0
51745.0,STARLINK-3449,PAYLOAD,2023-06-29 02:34:51,15.0883804,0.0001175,53.2174,59.078,79.3895,280.723,8.211e-05,1.019e-05,0.0,0 STARLINK-3449,1 51745U 22016AH  23180.10754532  .00001019  00000-0  82110-4 0  9991,2 51745  53.2174  59.0780 0001175  79.3895 280.7230 15.08838040 76057,6917.886,95.438,540.564,538.939,0.0
51745.0,STARLINK-3449,PAYLOAD,2023-07-01 00:41:03,15.08839275,0.0001317,53.2179,50.4542,83.1842,276.93,3.2905e-05,2.36e-06,0.0,0 STARLINK-3449,1 51745U 22016AH  23182.02850806  .00000236  00000-0  32905-4 0  9992,2 51745  53.2179  50.4542 0001317  83.1842 276.9300 15.08839275 76344,6917.883,95.438,540.659,538.837,0.0
51745.0,STARLINK-3449,PAYLOAD,2023-07-02 08:28:45,15.08845547,0.0001186,53.2174,44.5078,96.5218,263.5909,1.895e-05,1.4e-07,0.0,0 STARLINK-3449,1 51745U 22016AH  23183.35330279  .00000014  00000-0  18950-4 0  9994,2 51745  53.2174  44.5078 0001186  96.5218 263.5909 15.08845547 76544,6917.863,95.437,540.549,538.908,0.0
51745.0,STARLINK-3449,PAYLOAD,2023-07-02 14:50:18,15.08837423,0.0001312,53.2173,43.3188,89.2887,270.8255,7.2365e-05,8.64e-06,0.0,0 STARLINK-3449,1 51745U 22016AH  23183.61826734  .00000864  00000-0  72365-4 0  9992,2 51745  53.2173  43.3188 0001312  89.2887 270.8255 15.08837423 76587,6917.888,95.438,540.661,538.846,0.0
51745.0,STARLINK-3449,PAYLOAD,2023-07-03 17:51:51,15.08840337,0.0001306,53.217,38.2629,94.8453,265.2689,2.6485e-05,1.34e-06,0.0,0 STARLINK-3449,1 51745U 22016AH  23184.74434616  .00000134  00000-0  26485-4 0  9993,2 51745  53.2170  38.2629 0001306  94.8453 265.2689 15.08840337 76757,6917.879,95.438,540.648,538.841,0.0
51745.0,STARLINK-3449,PAYLOAD,2023-07-04 14:31:52,15.08835405,0.0001166,53.2176,34.3982,94.3903,265.7223,-4.5699e-07,-2.95e-06,0.0,0 STARLINK-3449,1 51745U 22016AH  23185.60547057 -.00000295  00000-0 -45699-6 0  9993,2 51745  53.2176  34.3982 0001166  94.3903 265.7223 15.08835405 76884,6917.894,95.438,540.566,538.953,0.0
51745.0,STARLINK-3449,PAYLOAD,2023-07-05 00:04:10,15.08844065,0.0001079,53.2173,32.6134,96.3384,263.7731,5.0634e-05,5.18e-06,0.0,0 STARLINK-3449,1 51745U 22016AH  23186.00290358  .00000518  00000-0  50634-4 0  9996,2 51745  53.2173  32.6134 0001079  96.3384 263.7731 15.08844065 76940,6917.868,95.437,540.479,538.987,0.0
51745.0,STARLINK-3449,PAYLOAD,2023-07-05 06:25:43,15.08840382,0.0001032,53.2174,31.424,93.1317,266.9793,1.7778e-06,-2.59e-06,0.0,0 STARLINK-3449,1 51745U 22016AH  23186.26786697 -.00000259  00000-0  17778-5 0  9996,2 51745  53.2174  31.4240 0001032  93.1317 266.9793 15.08840382 76981,6917.879,95.438,540.458,539.03,0.0
51745.0,STARLINK-3449,PAYLOAD,2023-07-05 23:54:58,15.08836173,9.81e-05,53.2179,28.1533,94.9239,265.1865,1.4767e-05,-5.3e-07,0.0,0 STARLINK-3449,1 51745U 22016AH  23186.99651263 -.00000053  00000-0  14767-4 0  9992,2 51745  53.2179  28.1533 0000981  94.9239 265.1865 15.08836173 77095,6917.892,95.438,540.436,539.078,0.0
51745.0,STARLINK-3449,PAYLOAD,2023-07-06 23:45:45,15.08843423,0.0001255,53.218,23.6926,103.5136,256.5996,0.00011975,1.619e-05,0.0,0 STARLINK-3449,1 51745U 22016AH  23187.99010742  .00001619  00000-0  11975-3 0  9999,2 51745  53.2180  23.6926 0001255 103.5136 256.5996 15.08843423 77243,6917.87,95.437,540.603,538.867,0.0
51745.0,STARLINK-3449,PAYLOAD,2023-07-08 05:58:05,15.08840732,0.0001085,53.2187,18.0433,78.722,281.3894,5.5898e-05,6.02e-06,0.0,0 STARLINK-3449,1 51745U 22016AH  23189.24867245  .00000602  00000-0  55898-4 0  9991,2 51745  53.2187  18.0433 0001085  78.7220 281.3894 15.08840732 77433,6917.878,95.438,540.494,538.993,0.0
51745.0,STARLINK-3449,PAYLOAD,2023-07-09 12:10:25,15.08837565,0.0001136,53.2184,12.3929,102.0837,258.0282,5.2813e-06,-2.04e-06,0.0,0 STARLINK-3449,1 51745U 22016AH  23190.50723618 -.00000204  00000-0  52813-5 0  9991,2 51745  53.2184  12.3929 0001136 102.0837 258.0282 15.08837565 77622,6917.888,95.438,540.539,538.967,0.0
51745.0,STARLINK-3449,PAYLOAD,2023-07-09 21:42:43,15.0884466,8.77e-05,53.2183,10.6088,87.3916,272.7177,1.8395e-05,5e-08,0.0,0 STARLINK-3449,1 51745U 22016AH  23190.90467111  .00000005  00000-0  18395-4 0  9992,2 51745  53.2183  10.6088 0000877  87.3916 272.7177 15.08844660 77688,6917.866,95.437,540.338,539.124,0.0
51745.0,STARLINK-3449,PAYLOAD,2023-07-10 23:08:53,15.08846929,9.62e-05,53.2181,5.8501,84.8976,275.2126,0.00011627,1.564e-05,0.0,0 STARLINK-3449,1 51745U 22016AH  23191.96450646  .00001564  00000-0  11627-3 0  9995,2 51745  53.2181   5.8501 0000962  84.8976 275.2126 15.08846929 77845,6917.859,95.437,540.39,539.059,0.0
51745.0,STARLINK-3449,PAYLOAD,2023-07-11 10:16:38,15.08811427,0.0001097,53.2188,3.7718,63.9392,296.1713,-0.00014017,-2.516e-05,0.0,0 STARLINK-3449,1 51745U 22016AH  23192.42822199 -.00002516  00000-0 -14017-3 0  9999,2 51745  53.2188   3.7718 0001097  63.9392 296.1713 15.08811427 77916,6917.968,95.439,540.592,539.074,0.0
51745.0,STARLINK-3449,PAYLOAD,2023-07-12 03:45:53,15.08819896,0.0001041,53.2184,0.499,80.5862,279.5248,-0.00011001,-2.037e-05,0.0,0 STARLINK-3449,1 51745U 22016AH  23193.15686561 -.00002037  00000-0 -11001-3 0  9999,2 51745  53.2184   0.4990 0001041  80.5862 279.5248 15.08819896 78023,6917.942,95.439,540.527,539.087,0.0
51745.0,STARLINK-3449,PAYLOAD,2023-07-12 11:42:47,15.08837617,5.9e-05,53.218,359.0121,68.4858,291.6197,-1.5302e-05,-5.31e-06,0.0,0 STARLINK-3449,1 51745U 22016AH  23193.48805149 -.00000531  00000-0 -15302-4 0  9996,2 51745  53.2180 359.0121 0000590  68.4858 291.6197 15.08837617 78070,6917.888,95.438,540.161,539.345,0.0
51745.0,STARLINK-3449,PAYLOAD,2023-07-12 18:04:19,15.08844913,8.02e-05,53.2179,357.8232,66.2327,293.8749,4.6488e-05,4.52e-06,0.0,0 STARLINK-3449,1 51745U 22016AH  23193.75300484  .00000452  00000-0  46488-4 0  9997,2 51745  53.2179 357.8232 0000802  66.2327 293.8749 15.08844913 78119,6917.865,95.437,540.285,539.176,0.0
51745.0,STARLINK-3449,PAYLOAD,2023-07-13 19:30:29,15.08844906,8.6e-05,53.2182,353.0644,87.4924,272.6167,0.00030967,4.645e-05,0.0,0 STARLINK-3449,1 51745U 22016AH  23194.81284360  .00004645  00000-0  30967-3 0  9991,2 51745  53.2182 353.0644 0000860  87.4924 272.6167 15.08844906 78278,6917.865,95.437,540.325,539.135,0.0
51745.0,STARLINK-3449,PAYLOAD,2023-07-15 03:18:12,15.08852354,8.85e-05,53.219,347.1195,82.695,277.4142,9.2429e-08,-2.86e-06,0.0,0 STARLINK-3449,1 51745U 22016AH  23196.13763891 -.00000286  00000-0  92429-7 0  9992,2 51745  53.2190 347.1195 0000885  82.6950 277.4142 15.08852354 78479,6917.843,95.437,540.32,539.095,0.0
51745.0,STARLINK-3449,PAYLOAD,2023-07-16 03:08:59,15.08840069,0.0001055,53.2206,342.6541,83.065,277.0462,-3.2664e-05,-8.08e-06,0.0,0 STARLINK-3449,1 51745U 22016AH  23197.13124485 -.00000808  00000-0 -32664-4 0  9996,2 51745  53.2206 342.6541 0001055  83.0650 277.0462 15.08840069 78622,6917.88,95.438,540.475,539.015,0.0
